GLOBALSTAR M068         
1 32266U 07048D   25002.48070322 -.00000089  00000+0  83733-4 0  9998
2 32266  51.9890  87.3808 0001673 129.4853 243.4367 12.62812685796626
GLOBALSTAR M079         
1 37188U 10054A   25002.92638703 -.00000057  00000+0  26139-3 0  9990
2 37188  52.0046 282.8696 0000589  39.6491  50.1032 12.62269299655589
GLOBALSTAR M074         
1 37189U 10054B   25003.01488296 -.00000054  00000+0  27519-3 0  9992
2 37189  52.0023 281.9471 0000932  57.2765 315.3408 12.62261088656276
GLOBALSTAR M076         
1 37190U 10054C   25003.15004878 -.00000059  00000+0  24847-3 0  9995
2 37190  52.0035 281.6923 0000917  38.6725 108.2244 12.62275665656297
GLOBALSTAR M077         
1 37191U 10054D   25002.94932002 -.00000070  00000+0  18931-3 0  9991
2 37191  52.0055 239.1135 0001015  71.6865 301.7614 12.62269463656284
GLOBALSTAR M075         
1 37192U 10054E   25002.37556498 -.00000048  00000+0  31024-3 0  9993
2 37192  51.9967 326.3970 0000550  57.4502 109.2399 12.62271151654909
GLOBALSTAR M073         
1 37193U 10054F   25002.89635953 -.00000063  00000+0  22653-3 0  9990
2 37193  52.0043 238.5051 0000962  64.8178 309.3354 12.62262051656960
GLOBALSTAR M083         
1 37739U 11033A   25002.43225579 -.00000093  00000+0  58983-4 0  9992
2 37739  51.9829 188.8742 0000908  96.9313 267.4602 12.62270312625928
GLOBALSTAR M088         
1 37740U 11033B   25002.99665831 -.00000075  00000+0  16068-3 0  9991
2 37740  51.9735  92.7845 0000669 132.5253  38.2605 12.62266885621829
GLOBALSTAR M091         
1 37741U 11033C   25002.42117169 -.00000075  00000+0  16302-3 0  9997
2 37741  52.0008  57.7979 0000544 161.8917 211.6901 12.62272297622256
GLOBALSTAR M085         
1 37742U 11033D   25003.04659394 -.00000092  00000+0  65075-4 0  9999
2 37742  51.9885   7.0774 0000149 149.3932 248.2472 12.62263442623339
GLOBALSTAR M081         
1 37743U 11033E   25003.24121934 -.00000081  00000+0  12789-3 0  9997
2 37743  51.9978   9.1686 0000131 345.2568  98.0982 12.62274922623399
GLOBALSTAR M089         
1 37744U 11033F   25003.04204671 -.00000069  00000+0  19552-3 0  9997
2 37744  51.9950 324.0362 0000735  41.1014  35.7660 12.62274493624089
GLOBALSTAR M084         
1 38040U 11080A   25002.91147308 -.00000109  00000+0 -26735-4 0  9995
2 38040  51.9980 191.6327 0001330  80.5104  62.8552 12.62273173601798
GLOBALSTAR M080         
1 38041U 11080B   25002.88659638 -.00000094  00000+0  54594-4 0  9992
2 38041  52.0032 193.2603 0001293  66.0172  82.4518 12.62260288601913
GLOBALSTAR M082         
1 38042U 11080C   25002.48043998 -.00000119  00000+0 -82656-4 0  9994
2 38042  52.0056 149.9219 0001190 129.5919 273.5832 12.62271739602579
GLOBALSTAR M092         
1 38043U 11080D   25002.16420013 -.00000040  00000+0  35767-3 0  9999
2 38043  52.0067 241.2547 0001075  74.6664  90.7696 12.62271638601193
GLOBALSTAR M090         
1 38044U 11080E   25002.44033439 -.00000109  00000+0 -26817-4 0  9997
2 38044  51.9869 144.0658 0000977 118.1525 342.5945 12.62265434602682
GLOBALSTAR M086         
1 38045U 11080F   25003.11555647 -.00000094  00000+0  53550-4 0  9999
2 38045  51.9881 142.5474 0000466  46.0665 124.9421 12.62265416602819
GLOBALSTAR M097         
1 39072U 13005A   25002.47123204 -.00000071  00000+0  18263-3 0  9993
2 39072  52.0059  58.8906 0000332 146.5729 213.5159 12.62268467549886
GLOBALSTAR M093         
1 39073U 13005B   25002.84008852 -.00000080  00000+0  13149-3 0  9994
2 39073  51.9824  51.3306 0000276 155.5524 204.5356 12.62260628549887
GLOBALSTAR M094         
1 39074U 13005C   25002.91971715 -.00000088  00000+0  90770-4 0  9994
2 39074  51.9978 325.3082 0000247  15.4438 344.6436 12.62266566551503
GLOBALSTAR M096         
1 39075U 13005D   25002.45782688 -.00000081  00000+0  12950-3 0  9999
2 39075  52.0092  15.0995 0000188 188.7455 171.3409 12.62266370550367
GLOBALSTAR M078         
1 39076U 13005E   25002.27247351 -.00000211  00000+0 -60000-3 0  9998
2 39076  51.9878 100.3944 0001441 150.7217 209.3731 12.62266780548966
GLOBALSTAR M095         
1 39077U 13005F   25002.45762839 -.00000088  00000+0  89561-4 0  9997
2 39077  51.9802  97.1126 0001001 159.1715 200.9192 12.62269954549209
GLOBALSTAR M087         
1 52888U 22064A   25002.89044688 -.00000068  00000+0  16951-3 0  9990
2 52888  51.9768 238.9642 0021477  15.5430 344.6104 12.88918663124137
